{"type":"FeatureCollection","features":[{"type":"Feature","properties":{"name":"Balai Polis Komuniti Sek. 7","category":"police","address":"20 Jalan Plumbum AA 7/AA, 40000, Shah Alam"},"geometry":{"type":"Point","coordinates":[101.48952,3.06458]}},{"type":"Feature","properties":{"name":"Balai Polis Pinggiran USJ","category":"police"},"geometry":{"type":"Point","coordinates":[101.54978,3.04301]}},{"type":"Feature","properties":{"name":"Balai Polis Komuniti Bandar Teknologi","category":"police"},"geometry":{"type":"Point","coordinates":[101.82827,2.97355]}},{"type":"Feature","properties":{"name":"Pondok Polis Komuniti","category":"police"},"geometry":{"type":"Point","coordinates":[101.56077,3.07366]}},{"type":"Feature","properties":{"name":"Balai Polis","category":"police"},"geometry":{"type":"Point","coordinates":[101.78962,2.88418]}},{"type":"Feature","properties":{"name":"Balai Polis Bandar Baru Klang","category":"police","address":"32 Jalan Tiara 2A/Ku 1, 41150 Klang, Bandar Baru Klang"},"geometry":{"type":"Point","coordinates":[101.46776,3.06297]}},{"type":"Feature","properties":{"name":"Balai Polis Meru","category":"police","address":"40 & 41 Jalan Ponak Ku 8, 41050 Klang, Meru"},"geometry":{"type":"Point","coordinates":[101.44012,3.13539]}},{"type":"Feature","properties":{"name":"Bandar Sungai Long Community Police Station","category":"police","address":"2 Jalan SL 1/13, 43200, Bandar Sungai Long"},"geometry":{"type":"Point","coordinates":[101.79111,3.04184]}},{"type":"Feature","properties":{"name":"Balai Polis Lembah Subang","category":"police"},"geometry":{"type":"Point","coordinates":[101.58278,3.11139]}},{"type":"Feature","properties":{"name":"Balai Polis Desa Jaya","category":"police"},"geometry":{"type":"Point","coordinates":[101.62411,3.22187]}},{"type":"Feature","properties":{"name":"Balai Polis Seksyen 15","category":"police"},"geometry":{"type":"Point","coordinates":[101.52152,3.05905]}},{"type":"Feature","properties":{"name":"Balai Polis Kota Damansara","category":"police"},"geometry":{"type":"Point","coordinates":[101.59306,3.15216]}},{"type":"Feature","properties":{"name":"Balai Polis Kuang","category":"police"},"geometry":{"type":"Point","coordinates":[101.55416,3.25703]}},{"type":"Feature","properties":{"name":"Balai Polis Saujana Utama","category":"police","address":"22;24 Jalan Dahlia 2"},"geometry":{"type":"Point","coordinates":[101.48086,3.20432]}},{"type":"Feature","properties":{"name":"Balai Polis Komuniti U9","category":"police","address":"Jalan Hijau Alam U9/14, 40170, Shah Alam"},"geometry":{"type":"Point","coordinates":[101.50676,3.13778]}},{"type":"Feature","properties":{"name":"Balai Polis Kapar","category":"police","address":"42200, Kapar"},"geometry":{"type":"Point","coordinates":[101.37576,3.13696]}},{"type":"Feature","properties":{"name":"Pondok Polis Alam Jaya","category":"police","address":"Puncak Alam"},"geometry":{"type":"Point","coordinates":[101.44699,3.23916]}},{"type":"Feature","properties":{"name":"Balai Polis Pulau Ketam","category":"police"},"geometry":{"type":"Point","coordinates":[101.25352,3.02014]}},{"type":"Feature","properties":{"name":"Alam Impian Police Station","category":"police","address":"12 Jalan Tun Teja B 35/B, Shah Alam"},"geometry":{"type":"Point","coordinates":[101.51387,3.01611]}},{"type":"Feature","properties":{"name":"Pondok Polis Dewan Guthrie","category":"police"},"geometry":{"type":"Point","coordinates":[101.53525,3.10706]}},{"type":"Feature","properties":{"name":"Balai Polis Serendah","category":"police","address":"48200, Serendah"},"geometry":{"type":"Point","coordinates":[101.60484,3.36727]}},{"type":"Feature","properties":{"name":"Balai Polis Komuniti U13 Setia Alam","category":"police","address":"Jalan Setia Prima E U13/E, 40170, Shah Alam"},"geometry":{"type":"Point","coordinates":[101.44499,3.09531]}},{"type":"Feature","properties":{"name":"Balai Polis Petaling Utama","category":"police","address":"Petaling Jaya"},"geometry":{"type":"Point","coordinates":[101.65229,3.08018]}},{"type":"Feature","properties":{"name":"Balai Polis Ulu Yam Bharu","category":"police","address":"44300, Batang Kali"},"geometry":{"type":"Point","coordinates":[101.65944,3.43544]}},{"type":"Feature","properties":{"name":"Balai Polis Putra Heights","category":"police","address":"20 Jalan Putra Bahagia 8/4B, Subang Jaya"},"geometry":{"type":"Point","coordinates":[101.57143,3.00028]}},{"type":"Feature","properties":{"name":"Balai Polis Komuniti Bandar Seri Ehsan","category":"police","address":"Jalan BSE 4/46, Banting"},"geometry":{"type":"Point","coordinates":[101.63043,2.77008]}},{"type":"Feature","properties":{"name":"Trafik PDRM Hulu Selangor","category":"police","address":"Jalan Bukit Kerajaan, Kuala Kubu Bharu"},"geometry":{"type":"Point","coordinates":[101.65962,3.56232]}},{"type":"Feature","properties":{"name":"Ibu Pejabat Polis Daerah Hulu Selangor","category":"police","address":"Jalan Kubu, Kuala Kubu Bharu"},"geometry":{"type":"Point","coordinates":[101.66035,3.56248]}},{"type":"Feature","properties":{"name":"Balai Polis Bandar Kinrara","category":"police","address":"Puchong"},"geometry":{"type":"Point","coordinates":[101.65158,3.03846]}},{"type":"Feature","properties":{"name":"Balai Polis Taman Sentosa","category":"police","address":"25 Jalan Temenggung 1, 41200, Kuala Lumpur"},"geometry":{"type":"Point","coordinates":[101.47846,3.0073]}},{"type":"Feature","properties":{"name":"Balai Polis Kerling","category":"police","address":"44100, Kerling"},"geometry":{"type":"Point","coordinates":[101.60313,3.59058]}},{"type":"Feature","properties":{"name":"Balai Polis Kalumpang","category":"police","address":"Kalumpang"},"geometry":{"type":"Point","coordinates":[101.5729,3.63982]}},{"type":"Feature","properties":{"name":"Balai Polis Prima Sri Gombak","category":"police"},"geometry":{"type":"Point","coordinates":[101.69986,3.23664]}},{"type":"Feature","properties":{"name":"Balai Polis Komuniti Taipan","category":"police","address":"Jalan USJ 10/1D, 47620, Subang Jaya"},"geometry":{"type":"Point","coordinates":[101.58422,3.04886]}},{"type":"Feature","properties":{"name":"Balai Polis Batu Caves","category":"police","address":"113 Jalan SBC 1, 68100, Batu Caves"},"geometry":{"type":"Point","coordinates":[101.68798,3.23511]}},{"type":"Feature","properties":{"name":"Lapang Sasar PGA","category":"police"},"geometry":{"type":"Point","coordinates":[101.74883,3.08406]}},{"type":"Feature","properties":{"name":"Cawangan Kereta Peronda IPD Kajang","category":"police"},"geometry":{"type":"Point","coordinates":[101.84571,2.95093]}},{"type":"Feature","properties":{"name":"Balai Polis Bantuan","category":"police"},"geometry":{"type":"Point","coordinates":[101.48431,3.06585]}},{"type":"Feature","properties":{"name":"Balai Polis Komuniti Saujana Putra","category":"police","address":"74 Jalan SP 8/1, 42610, Bandar Saujana Putra"},"geometry":{"type":"Point","coordinates":[101.58441,2.93934]}},{"type":"Feature","properties":{"name":"Balai Polis Sungai Besi Indah","category":"police"},"geometry":{"type":"Point","coordinates":[101.72601,3.02737]}},{"type":"Feature","properties":{"name":"Balai Polis Hulu Klang","category":"police","address":"Jalan AU 2C/1"},"geometry":{"type":"Point","coordinates":[101.75231,3.17594]}},{"type":"Feature","properties":{"name":"Balai Polis Ukay Perdana","category":"police","address":"5 Jalan UP 1/8, Ampang"},"geometry":{"type":"Point","coordinates":[101.77727,3.20426]}},{"type":"Feature","properties":{"name":"Balai Polis Bestari Jaya","category":"police","address":"Jalan Rawang - Bestari Jaya, 45600, Bestari Jaya"},"geometry":{"type":"Point","coordinates":[101.40898,3.37716]}},{"type":"Feature","properties":{"name":"Balai Polis Bandar Bukit Tinggi","category":"police"},"geometry":{"type":"Point","coordinates":[101.42923,2.99363]}},{"type":"Feature","properties":{"name":"Balai Polis Bandar Puteri","category":"police"},"geometry":{"type":"Point","coordinates":[101.62366,3.02605]}},{"type":"Feature","properties":{"name":"Balai Polis Bukit Puchong","category":"police"},"geometry":{"type":"Point","coordinates":[101.62017,2.98984]}},{"type":"Feature","properties":{"name":"Balai Polis Taman Bukit Indah","category":"police"},"geometry":{"type":"Point","coordinates":[101.77492,3.15241]}},{"type":"Feature","properties":{"name":"Balai Polis Batu Arang","category":"police"},"geometry":{"type":"Point","coordinates":[101.44531,3.30353]}},{"type":"Feature","properties":{"name":"Unit Siasatan Lebuhraya NKVE (Bukit Aman)","category":"police"},"geometry":{"type":"Point","coordinates":[101.54469,3.09776]}},{"type":"Feature","properties":{"name":"Balai Polis Pulau Indah","category":"police"},"geometry":{"type":"Point","coordinates":[101.38743,2.99063]}},{"type":"Feature","properties":{"name":"Pondok Polis Komuniti Pusat Hentian Kajang","category":"police","address":"Jalan Hentian 1"},"geometry":{"type":"Point","coordinates":[101.79057,2.95728]}},{"type":"Feature","properties":{"name":"Balai Polis Trafik Shah Alam","category":"police"},"geometry":{"type":"Point","coordinates":[101.52064,3.08621]}},{"type":"Feature","properties":{"name":"Balai Polis Bandar Tun Hussein Onn","category":"police"},"geometry":{"type":"Point","coordinates":[101.75918,3.03606]}},{"type":"Feature","properties":{"name":"Pejabat Polis Bantuan","category":"police"},"geometry":{"type":"Point","coordinates":[101.66686,2.86901]}},{"type":"Feature","properties":{"name":"Balai Polis Seksyen 6 Shah Alam","category":"police","address":"Jalan Nuri 6/1, 40000, Shah Alam"},"geometry":{"type":"Point","coordinates":[101.50738,3.08423]}},{"type":"Feature","properties":{"name":"Balai Polis Kelana Jaya","category":"police","address":"Petaling Jaya"},"geometry":{"type":"Point","coordinates":[101.6002,3.10085]}},{"type":"Feature","properties":{"name":"Pondok Polis Sri Damansara","category":"police"},"geometry":{"type":"Point","coordinates":[101.61109,3.19392]}},{"type":"Feature","properties":{"name":"Balai Polis Bandar Baru Bangi","category":"police"},"geometry":{"type":"Point","coordinates":[101.76255,2.9388]}},{"type":"Feature","properties":{"name":"Balai Polis Sg Pelong","category":"police"},"geometry":{"type":"Point","coordinates":[101.5311,3.21538]}},{"type":"Feature","properties":{"name":"Balai Polis Sea Park","category":"police","address":"Petaling Jaya"},"geometry":{"type":"Point","coordinates":[101.62323,3.11758]}},{"type":"Feature","properties":{"name":"Ibu Pejabat Polis Daerah (IPD) Subang Jaya","category":"police"},"geometry":{"type":"Point","coordinates":[101.58952,3.04543]}},{"type":"Feature","properties":{"name":"Balai Polis Bandar Selamat Bandar Sunway","category":"police","address":"Jalan PJS 11/28A, 46150, Subang Jaya"},"geometry":{"type":"Point","coordinates":[101.60932,3.07367]}},{"type":"Feature","properties":{"name":"Balai Polis Kundang","category":"police","address":"Jalan Sekolah, Kuang"},"geometry":{"type":"Point","coordinates":[101.51255,3.27695]}},{"type":"Feature","properties":{"name":"Balai Polis Pandan Perdana","category":"police","address":"2 Jalan 6/8, 55300, Kuala Lumpur"},"geometry":{"type":"Point","coordinates":[101.74452,3.11202]}},{"type":"Feature","properties":{"name":"Balai Polis Bukit Serdang","category":"police","address":"11 Jalan BS 5/26, 43300, Seri Kembangan"},"geometry":{"type":"Point","coordinates":[101.69599,3.02245]}},{"type":"Feature","properties":{"name":"Pondok Polis Mutiara Damansara","category":"police"},"geometry":{"type":"Point","coordinates":[101.60328,3.15875]}},{"type":"Feature","properties":{"name":"Cawangan Trafik IPD Serdang","category":"police","address":"43300, Seri Kembangan"},"geometry":{"type":"Point","coordinates":[101.70925,3.02431]}},{"type":"Feature","properties":{"name":"Balai Polis Ara Damansara","category":"police"},"geometry":{"type":"Point","coordinates":[101.58486,3.11722]}},{"type":"Feature","properties":{"name":"Ibu Pejabat Polis Daerah Kuala Langat","category":"police","address":"Jalan Sultan Alam Shah, 42700"},"geometry":{"type":"Point","coordinates":[101.49362,2.80485]}},{"type":"Feature","properties":{"name":"Kompleks Balai Polis Cyberjaya","category":"police","address":"63000 Sepang, Cyberjaya"},"geometry":{"type":"Point","coordinates":[101.65272,2.90725]}},{"type":"Feature","properties":{"name":"IPD Ampang Jaya","category":"police"},"geometry":{"type":"Point","coordinates":[101.75636,3.14918]}},{"type":"Feature","properties":{"name":"Balai Polis KLIA","category":"police","address":"Jalan Masjid KLIA, Sepang"},"geometry":{"type":"Point","coordinates":[101.67924,2.78783]}},{"type":"Feature","properties":{"name":"Balai Polis Gohtong Jaya","category":"police","address":"48200, Genting Highlands"},"geometry":{"type":"Point","coordinates":[101.77072,3.40101]}},{"type":"Feature","properties":{"name":"Balai Polis Batu 18","category":"police","address":"43100, Hulu Langat"},"geometry":{"type":"Point","coordinates":[101.84691,3.1639]}},{"type":"Feature","properties":{"name":"Balai Polis Rasa","category":"police","address":"Jalan Stesen Rasa, Rasa"},"geometry":{"type":"Point","coordinates":[101.63334,3.49931]}},{"type":"Feature","properties":{"name":"Balai Polis Dengkil","category":"police","address":"43800, Dengkil"},"geometry":{"type":"Point","coordinates":[101.67957,2.85936]}},{"type":"Feature","properties":{"name":"Balai Polis Gedangsa","category":"police","address":"44020, Kuala Kubu Bharu"},"geometry":{"type":"Point","coordinates":[101.38439,3.74031]}},{"type":"Feature","properties":{"name":"Balai Polis Sungai Way","category":"police","address":"Petaling Jaya"},"geometry":{"type":"Point","coordinates":[101.62116,3.08716]}},{"type":"Feature","properties":{"name":"Balai Polis Ulu Bernam","category":"police","address":"Hulu Bernam"},"geometry":{"type":"Point","coordinates":[101.52541,3.67167]}},{"type":"Feature","properties":{"name":"Balai Polis Batang Kali","category":"police","address":"44300, Batang Kali"},"geometry":{"type":"Point","coordinates":[101.63971,3.46831]}},{"type":"Feature","properties":{"name":"Balai Polis Gombak","category":"police"},"geometry":{"type":"Point","coordinates":[101.71336,3.21866]}},{"type":"Feature","properties":{"name":"Ibu Pejabat Polis Daerah Serdang","category":"police","address":"Puchong"},"geometry":{"type":"Point","coordinates":[101.65103,3.03842]}},{"type":"Feature","properties":{"name":"Balai Polis Seksyen 11","category":"police","address":"Persiaran Damai, 40100, Seksyen 11"},"geometry":{"type":"Point","coordinates":[101.52566,3.07627]}},{"type":"Feature","properties":{"name":"Balai Polis Bandar Country Homes","category":"police","address":"Jalan Desa Jaya, 48000, Bandar Country Homes"},"geometry":{"type":"Point","coordinates":[101.53675,3.33256]}},{"type":"Feature","properties":{"name":"Balai Polis Beranang","category":"police"},"geometry":{"type":"Point","coordinates":[101.8704,2.86875]}},{"type":"Feature","properties":{"name":"Balai Polis Dato' Abu Bakar Baginda","category":"police","address":"B13 Jalan Ayer Hitam, 43000, Kajang"},"geometry":{"type":"Point","coordinates":[101.73291,2.96298]}},{"type":"Feature","properties":{"name":"Balai Polis Batu Arang","category":"police"},"geometry":{"type":"Point","coordinates":[101.47192,3.31975]}},{"type":"Feature","properties":{"name":"Balai Polis Bukit Sentosa","category":"police","address":"Jalan Cempaka, 48300, Rawang"},"geometry":{"type":"Point","coordinates":[101.56253,3.40122]}},{"type":"Feature","properties":{"name":"Balai Polis Batu 9","category":"police","address":"Jalan Cheras, 43200, Hulu Langat"},"geometry":{"type":"Point","coordinates":[101.77092,3.06822]}},{"type":"Feature","properties":{"name":"Balai Polis Tanjung Karang","category":"police"},"geometry":{"type":"Point","coordinates":[101.16958,3.42456]}},{"type":"Feature","properties":{"name":"Balai Polis Sungai Pelek","category":"police","address":"43950, Sungai Pelek"},"geometry":{"type":"Point","coordinates":[101.71446,2.63998]}},{"type":"Feature","properties":{"name":"Balai Polis Putra Perdana","category":"police"},"geometry":{"type":"Point","coordinates":[101.59268,2.97534]}},{"type":"Feature","properties":{"name":"Pondok Polis Selayang Baru","category":"police"},"geometry":{"type":"Point","coordinates":[101.67082,3.24793]}},{"type":"Feature","properties":{"name":"Balai Polis Sabak Bernam","category":"police","address":"Jalan Menteri, 45400, Sabak Bernam"},"geometry":{"type":"Point","coordinates":[100.98437,3.76367]}},{"type":"Feature","properties":{"name":"Ibu Pejabat Polis Daerah Sepang","category":"police","address":"43900, Bandar Baru Salak Tinggi"},"geometry":{"type":"Point","coordinates":[101.74058,2.80521]}},{"type":"Feature","properties":{"name":"Polis Bantuan","category":"police"},"geometry":{"type":"Point","coordinates":[101.53981,2.94346]}},{"type":"Feature","properties":{"name":"Ibu Pejabat Polis Daerah Sungai Buloh","category":"police"},"geometry":{"type":"Point","coordinates":[101.56788,3.19392]}},{"type":"Feature","properties":{"name":"Balai Polis Kampung Baru Subang","category":"police"},"geometry":{"type":"Point","coordinates":[101.53567,3.1421]}},{"type":"Feature","properties":{"name":"Kota Damansara Traffic Police Station","category":"police","address":"Jalan Cecawi 6/18, 47810, Kota Damansara"},"geometry":{"type":"Point","coordinates":[101.57518,3.1598]}},{"type":"Feature","properties":{"name":"Balai Polis Subang Jaya","category":"police","address":"Jalan SS 17/2, 47500, Subang Jaya"},"geometry":{"type":"Point","coordinates":[101.58522,3.07404]}},{"type":"Feature","properties":{"name":"Balai Polis Teluk Panglima Garang","category":"police","address":"14 Jalan Temenggong, Teluk Panglima Garang"},"geometry":{"type":"Point","coordinates":[101.4751,2.91517]}},{"type":"Feature","properties":{"name":"Ibu Pejabat Polis Daerah Gombak","category":"police"},"geometry":{"type":"Point","coordinates":[101.64145,3.25281]}},{"type":"Feature","properties":{"name":"Ibu Pejabat Polis Daerah Kuala Selangor","category":"police"},"geometry":{"type":"Point","coordinates":[101.26551,3.32126]}},{"type":"Feature","properties":{"name":"Balai Polis Pandan Indah","category":"police","address":"Jalan Pandan Ilmu, 55100, Pandan Indah"},"geometry":{"type":"Point","coordinates":[101.75022,3.12793]}},{"type":"Feature","properties":{"name":"Balai Polis Taman Sri Muda","category":"police","address":"67 Jln 25/67, Shah Alam"},"geometry":{"type":"Point","coordinates":[101.53808,3.03248]}},{"type":"Feature","properties":{"name":"Ibu Pejabat Polis Daerah Klang Selatan","category":"police"},"geometry":{"type":"Point","coordinates":[101.4473,3.04301]}},{"type":"Feature","properties":{"name":"Pondok Polis Bandar Botanik","category":"police"},"geometry":{"type":"Point","coordinates":[101.44406,2.98455]}},{"type":"Feature","properties":{"name":"Pondok Polis Sri Manja","category":"police","address":"Petaling Jaya"},"geometry":{"type":"Point","coordinates":[101.64642,3.07427]}},{"type":"Feature","properties":{"name":"Balai Polis Puchong Jaya","category":"police","address":"Jalan Kenari 11, 47100, Puchong"},"geometry":{"type":"Point","coordinates":[101.62349,3.04896]}},{"type":"Feature","properties":{"name":"Balai Polis Sepang","category":"police","address":"43900, Sepang"},"geometry":{"type":"Point","coordinates":[101.75079,2.69158]}},{"type":"Feature","properties":{"name":"Balai Polis Tanjung Sepat","category":"police"},"geometry":{"type":"Point","coordinates":[101.5568,2.66342]}},{"type":"Feature","properties":{"name":"Balai Polis Pandamaran","category":"police"},"geometry":{"type":"Point","coordinates":[101.41502,3.0087]}},{"type":"Feature","properties":{"name":"Balai Polis Serdang","category":"police"},"geometry":{"type":"Point","coordinates":[101.71466,3.00799]}},{"type":"Feature","properties":{"name":"Balai Polis Taman Melawati","category":"police","address":"35 Jalan Melawati 3, 53100, Kuala Lumpur"},"geometry":{"type":"Point","coordinates":[101.74713,3.21221]}},{"type":"Feature","properties":{"name":"IPD Kajang","category":"police","address":"Jalan Semenyih, Kajang"},"geometry":{"type":"Point","coordinates":[101.78831,2.99401]}},{"type":"Feature","properties":{"name":"Balai Polis Seksyen 9","category":"police","address":"Persiaran Kayangan, 40100, Shah Alam"},"geometry":{"type":"Point","coordinates":[101.52091,3.08627]}},{"type":"Feature","properties":{"name":"Ibu Pejabat Polis Daerah Shah Alam","category":"police","address":"Persiaran Kayangan, 40100, Shah Alam"},"geometry":{"type":"Point","coordinates":[101.52064,3.08587]}},{"type":"Feature","properties":{"name":"Balai Polis Rawang","category":"police","address":"48000, Rawang"},"geometry":{"type":"Point","coordinates":[101.57664,3.31878]}},{"type":"Feature","properties":{"name":"Balai Polis Batu 14","category":"police"},"geometry":{"type":"Point","coordinates":[101.81669,3.11216]}},{"type":"Feature","properties":{"name":"Balai Polis Sungai Jarom","category":"police","address":"Jalan Sungai Buaya, 42600, Jenjarom"},"geometry":{"type":"Point","coordinates":[101.49871,2.87595]}},{"type":"Feature","properties":{"name":"Balai Polis Seri Kembangan","category":"police","address":"Jalan Raya 2, 43300, Seri Kembangan"},"geometry":{"type":"Point","coordinates":[101.70943,3.02315]}},{"type":"Feature","properties":{"name":"Balai Polis Jeram","category":"police"},"geometry":{"type":"Point","coordinates":[101.3155,3.22622]}},{"type":"Feature","properties":{"name":"Balai Polis Sekinchan","category":"police","address":"45400, Sekinchan"},"geometry":{"type":"Point","coordinates":[101.1011,3.50576]}},{"type":"Feature","properties":{"name":"Balai Polis Sungai Kapar (IPD Daerah Klang Utara)","category":"police"},"geometry":{"type":"Point","coordinates":[101.37699,3.09704]}},{"type":"Feature","properties":{"name":"Pondok Polis Batu Laut","category":"police"},"geometry":{"type":"Point","coordinates":[101.50626,2.67869]}},{"type":"Feature","properties":{"name":"Balai Polis Bandar Utama","category":"police","address":"Lebuh Bandar Utama, 47800, Bandar Utama"},"geometry":{"type":"Point","coordinates":[101.60757,3.1351]}},{"type":"Feature","properties":{"name":"Sungai Besar Police Station","category":"police","address":"45300, Sungai Besar"},"geometry":{"type":"Point","coordinates":[100.98901,3.67873]}},{"type":"Feature","properties":{"name":"Balai Polis Sungai Air Tawar","category":"police"},"geometry":{"type":"Point","coordinates":[100.89554,3.84171]}},{"type":"Feature","properties":{"name":"Balai Polis Telok Gong","category":"police"},"geometry":{"type":"Point","coordinates":[101.39097,2.96338]}},{"type":"Feature","properties":{"name":"Pondok Polis Sungai Tengi","category":"police"},"geometry":{"type":"Point","coordinates":[101.42488,3.61642]}},{"type":"Feature","properties":{"name":"Pondok Polis","category":"police"},"geometry":{"type":"Point","coordinates":[101.62744,3.07823]}},{"type":"Feature","properties":{"name":"Pondok Polis Ijok","category":"police"},"geometry":{"type":"Point","coordinates":[101.41644,3.31514]}},{"type":"Feature","properties":{"name":"Balai Polis Kepong","category":"police","address":"Jalan Kepong, 52100, Kuala Lumpur"},"geometry":{"type":"Point","coordinates":[101.63383,3.21418]}},{"type":"Feature","properties":{"name":"Balai Polis Pelabuhan Klang","category":"police"},"geometry":{"type":"Point","coordinates":[101.39235,3.00012]}},{"type":"Feature","properties":{"name":"Ibu Pejabat Polis Daerah Petaling Jaya","category":"police","address":"Petaling Jaya"},"geometry":{"type":"Point","coordinates":[101.64234,3.0988]}},{"type":"Feature","properties":{"name":"Balai Polis Damansara Utama","category":"police","address":"Jalan SS 21/60, 47400, Kuala Lumpur"},"geometry":{"type":"Point","coordinates":[101.62447,3.1325]}},{"type":"Feature","properties":{"name":"Balai Polis Komuniti Merbau Berdarah","category":"police"},"geometry":{"type":"Point","coordinates":[101.13025,3.71184]}},{"type":"Feature","properties":{"name":"Balai Polis KLIA","category":"police"},"geometry":{"type":"Point","coordinates":[101.67956,2.78718]}}]}