{"type":"FeatureCollection","features":[{"type":"Feature","geometry":{"type":"Polygon","coordinates":[[[101.2441,3.7211],[101.2278,3.7142],[101.2179,3.7124],[101.2121,3.709],[101.2133,3.7136],[101.2104,3.7177],[101.204,3.7194],[101.1999,3.7281],[101.1964,3.7177],[101.1895,3.7194],[101.1767,3.7107],[101.1709,3.713],[101.1691,3.7194],[101.1773,3.7177],[101.1813,3.7188],[101.1906,3.7304],[101.1837,3.7304],[101.1755,3.7281],[101.1709,3.7304],[101.168,3.7356],[101.1685,3.742],[101.1645,3.7496],[101.1621,3.7275],[101.1529,3.7455],[101.1499,3.7414],[101.1534,3.7298],[101.1348,3.7351],[101.1343,3.7397],[101.1436,3.7449],[101.143,3.7484],[101.1366,3.7519],[101.1337,3.7612],[101.1238,3.7449],[101.1232,3.738],[101.1162,3.738],[101.111,3.7455],[101.1064,3.7426],[101.1058,3.7339],[101.1,3.7385],[101.0959,3.7449],[101.0907,3.7403],[101.0825,3.7374],[101.0796,3.731],[101.075,3.7281],[101.0709,3.7322],[101.0727,3.7391],[101.0785,3.7467],[101.0761,3.7519],[101.0756,3.7588],[101.0802,3.7583],[101.0942,3.7513],[101.0988,3.7513],[101.0976,3.76],[101.0901,3.7652],[101.0947,3.7797],[101.086,3.7803],[101.0756,3.7652],[101.0668,3.7629],[101.0628,3.7542],[101.0575,3.7548],[101.0564,3.7606],[101.0581,3.7693],[101.0541,3.7756],[101.0552,3.7843],[101.0605,3.7913],[101.0605,3.7965],[101.0523,3.7907],[101.0395,3.7855],[101.0256,3.7849],[101.0279,3.7983],[101.0256,3.8058],[101.014,3.8017],[101.0012,3.7994],[100.9942,3.8],[100.9878,3.7954],[100.9826,3.771],[100.975,3.7681],[100.9622,3.7751],[100.957,3.7843],[100.9599,3.7942],[100.9657,3.8],[100.9803,3.8075],[100.9808,3.8133],[100.9739,3.822],[100.9698,3.8244],[100.9588,3.829],[100.9413,3.8319],[100.9378,3.8394],[100.9431,3.8562],[100.9437,3.8644],[100.9425,3.8707],[100.9338,3.8702],[100.9036,3.8586],[100.885,3.8551],[100.8652,3.8568],[100.846,3.851],[100.8373,3.851],[100.8251,3.8533],[100.8106,3.8178],[100.8077,3.8008],[100.812,3.7838],[100.8304,3.7782],[100.8546,3.7739],[100.8971,3.7541],[100.9085,3.7414],[100.9241,3.706],[100.9454,3.6663],[100.9638,3.6762],[100.9979,3.6564],[101.0135,3.6451],[101.0276,3.6295],[101.0418,3.6168],[101.0773,3.5545],[101.0986,3.4851],[101.1152,3.4936],[101.1769,3.5353],[101.3495,3.5992],[101.3494,3.5998],[101.3409,3.6556],[101.3462,3.6612],[101.346,3.6752],[101.3486,3.6828],[101.346,3.6906],[101.3443,3.6925],[101.339,3.6972],[101.3371,3.6933],[101.319,3.6898],[101.308,3.6811],[101.3057,3.6759],[101.301,3.6718],[101.2923,3.6771],[101.2795,3.6707],[101.2726,3.669],[101.2516,3.6753],[101.2493,3.6794],[101.2458,3.7008],[101.247,3.7095],[101.2499,3.7153],[101.2441,3.7211]]]},"properties":{"name":"Sabak Bernam","name_source":"Sabak Bernam","state":"Selangor","level":"daerah","area_km2":984.48,"area_ha":98448}},{"type":"Feature","geometry":{"type":"Polygon","coordinates":[[[101.0986,3.4851],[101.1162,3.4631],[101.118,3.4544],[101.1383,3.441],[101.1621,3.4027],[101.1732,3.3923],[101.1796,3.3755],[101.1831,3.3604],[101.1871,3.3534],[101.204,3.343],[101.2249,3.3389],[101.2301,3.3366],[101.2342,3.3296],[101.2487,3.314],[101.254,3.3128],[101.2586,3.3082],[101.2871,3.2693],[101.2993,3.2502],[101.2999,3.2385],[101.3074,3.2206],[101.3064,3.1655],[101.3157,3.1691],[101.3262,3.161],[101.3274,3.1629],[101.3433,3.1636],[101.3433,3.176],[101.3688,3.1764],[101.3692,3.186],[101.4005,3.1871],[101.4005,3.1931],[101.4265,3.1926],[101.4629,3.1919],[101.4741,3.1971],[101.4771,3.1927],[101.4871,3.1919],[101.4916,3.1849],[101.4921,3.2278],[101.4927,3.2751],[101.4745,3.2751],[101.4626,3.2777],[101.4622,3.3004],[101.4376,3.2981],[101.4317,3.3045],[101.4455,3.3379],[101.4469,3.3557],[101.4443,3.3557],[101.444,3.398],[101.4488,3.4006],[101.4562,3.4017],[101.4596,3.4002],[101.4596,3.401],[101.4607,3.4507],[101.4685,3.4834],[101.3494,3.5998],[101.3495,3.5992],[101.1769,3.5353],[101.1152,3.4936],[101.0986,3.4851]]]},"properties":{"name":"Kuala Selangor","name_source":"Kuala Selangor","state":"Selangor","level":"daerah","area_km2":1192.43,"area_ha":119243}},{"type":"Feature","geometry":{"type":"Polygon","coordinates":[[[101.339,3.6972],[101.3443,3.6925],[101.346,3.6906],[101.3486,3.6828],[101.346,3.6752],[101.3462,3.6612],[101.3409,3.6556],[101.3494,3.5998],[101.4685,3.4834],[101.4607,3.4507],[101.4596,3.401],[101.4707,3.39],[101.4754,3.3865],[101.4806,3.3801],[101.4783,3.3731],[101.4876,3.3679],[101.494,3.3673],[101.4992,3.3534],[101.5085,3.3534],[101.5201,3.347],[101.5294,3.3459],[101.537,3.3505],[101.5445,3.3511],[101.5544,3.3488],[101.5631,3.343],[101.5753,3.3401],[101.5805,3.3395],[101.584,3.3436],[101.5893,3.3378],[101.5922,3.3296],[101.6131,3.325],[101.6392,3.3244],[101.6468,3.332],[101.6526,3.3354],[101.659,3.3325],[101.6689,3.3314],[101.6793,3.3401],[101.6817,3.3343],[101.6962,3.3488],[101.7183,3.3882],[101.7236,3.3858],[101.73,3.3795],[101.7527,3.3717],[101.7574,3.374],[101.7579,3.3743],[101.766,3.3839],[101.7642,3.3924],[101.7654,3.4015],[101.7725,3.4114],[101.7824,3.4171],[101.7881,3.427],[101.7867,3.4327],[101.781,3.4426],[101.7753,3.4596],[101.7682,3.4709],[101.7611,3.4893],[101.7668,3.5191],[101.7753,3.5304],[101.7895,3.5431],[101.8023,3.5601],[101.8108,3.5814],[101.8122,3.5941],[101.804,3.6094],[101.8023,3.6125],[101.7867,3.6239],[101.7753,3.6508],[101.7569,3.6777],[101.7441,3.6932],[101.7384,3.7102],[101.7242,3.713],[101.6859,3.706],[101.6647,3.723],[101.6519,3.7286],[101.6247,3.7785],[101.6015,3.7716],[101.5922,3.7594],[101.5782,3.7467],[101.5759,3.7414],[101.5666,3.6979],[101.559,3.6962],[101.5509,3.6968],[101.5439,3.6939],[101.5416,3.6858],[101.5364,3.6823],[101.5312,3.68],[101.5236,3.6805],[101.5131,3.6858],[101.5033,3.6945],[101.4963,3.6985],[101.487,3.6985],[101.4777,3.7066],[101.4742,3.7142],[101.4626,3.7153],[101.4411,3.7501],[101.4219,3.7536],[101.4155,3.7594],[101.4068,3.76],[101.3992,3.7641],[101.3859,3.7756],[101.3806,3.7948],[101.3743,3.8006],[101.3644,3.8035],[101.358,3.8023],[101.3411,3.7936],[101.3283,3.7849],[101.3231,3.767],[101.3266,3.7635],[101.3313,3.7513],[101.3342,3.7496],[101.3365,3.7455],[101.3382,3.7264],[101.344,3.7159],[101.3435,3.7043],[101.339,3.6972]]]},"properties":{"name":"Hulu Selangor","name_source":"Ulu Selangor","state":"Selangor","level":"daerah","area_km2":1760.53,"area_ha":176053}},{"type":"Feature","geometry":{"type":"Polygon","coordinates":[[[101.7912,2.8702],[101.788,2.8765],[101.7723,2.884],[101.7694,2.8973],[101.7653,2.9049],[101.759,2.9113],[101.7558,2.9181],[101.7565,2.93],[101.7525,2.9419],[101.7513,2.9533],[101.7463,2.9599],[101.733,2.9625],[101.7337,2.969],[101.7325,2.9775],[101.7423,2.982],[101.7344,2.9968],[101.7266,3.0022],[101.7261,2.9972],[101.7282,2.9899],[101.6637,2.9778],[101.6544,2.9816],[101.6418,2.9801],[101.6087,2.9806],[101.5785,2.9789],[101.5928,2.9459],[101.6452,2.8443],[101.6589,2.828],[101.6656,2.8232],[101.6723,2.8232],[101.6824,2.8139],[101.6322,2.7552],[101.6314,2.7273],[101.5961,2.7284],[101.5976,2.646],[101.5946,2.6445],[101.5894,2.6422],[101.6028,2.6352],[101.6221,2.6326],[101.6805,2.6147],[101.6857,2.611],[101.6883,2.6069],[101.6894,2.598],[101.692,2.5962],[101.7095,2.5932],[101.7102,2.5985],[101.7088,2.5995],[101.7028,2.6077],[101.7181,2.6192],[101.7214,2.6203],[101.7262,2.6162],[101.7307,2.6177],[101.7318,2.6229],[101.7251,2.6359],[101.7337,2.6482],[101.7474,2.6549],[101.7478,2.6601],[101.746,2.6645],[101.7422,2.666],[101.7404,2.6694],[101.7408,2.6734],[101.7608,2.7035],[101.7645,2.7251],[101.7613,2.7424],[101.7508,2.8712],[101.7912,2.8702]],[[101.661,2.894],[101.6601,2.9015],[101.663,2.9043],[101.6638,2.9088],[101.6694,2.9103],[101.6691,2.9151],[101.6718,2.9156],[101.6723,2.9195],[101.6724,2.9229],[101.6682,2.928],[101.6674,2.9309],[101.6684,2.9396],[101.6647,2.9441],[101.6738,2.9463],[101.6748,2.9497],[101.6693,2.9553],[101.665,2.9574],[101.6629,2.9645],[101.6679,2.9692],[101.6763,2.972],[101.6869,2.9713],[101.7047,2.9789],[101.7076,2.9833],[101.7079,2.9833],[101.7076,2.9793],[101.7031,2.9754],[101.7,2.9719],[101.6998,2.9685],[101.7034,2.9671],[101.7034,2.9635],[101.7088,2.9636],[101.7088,2.962],[101.7113,2.9616],[101.7154,2.9641],[101.7154,2.9553],[101.7311,2.9552],[101.7326,2.9532],[101.7328,2.9292],[101.7075,2.9293],[101.7072,2.913],[101.7005,2.9131],[101.7003,2.9094],[101.6974,2.9095],[101.6975,2.9064],[101.7015,2.9054],[101.7017,2.9013],[101.701,2.8997],[101.6974,2.8985],[101.6974,2.894],[101.6897,2.893],[101.6882,2.8917],[101.6868,2.8846],[101.6852,2.8847],[101.6848,2.8817],[101.6805,2.8816],[101.6806,2.8801],[101.6784,2.8791],[101.6752,2.8811],[101.6744,2.8762],[101.6713,2.8834],[101.6658,2.8793],[101.6627,2.8854],[101.6637,2.8891],[101.661,2.894]]]},"properties":{"name":"Sepang","name_source":"Sepang","state":"Selangor","level":"daerah","area_km2":553.11,"area_ha":55311}},{"type":"Feature","geometry":{"type":"MultiPolygon","coordinates":[[[[101.3064,3.1655],[101.3108,3.1474],[101.3145,3.1218],[101.3171,3.1143],[101.3216,3.1095],[101.329,3.1095],[101.3551,3.0791],[101.3607,3.069],[101.3614,3.0568],[101.3566,3.0274],[101.3566,3.0137],[101.3603,3.0107],[101.3651,3.0003],[101.3785,3.0018],[101.3867,3.0007],[101.3919,2.9981],[101.393,2.9862],[101.3915,2.9806],[101.3737,2.9647],[101.3685,2.958],[101.3659,2.9405],[101.3584,2.9246],[101.3603,2.9197],[101.37,2.9082],[101.3755,2.9071],[101.3807,2.9097],[101.3848,2.9145],[101.3867,2.9372],[101.3923,2.9439],[101.396,2.9483],[101.4001,2.9509],[101.4045,2.9569],[101.4086,2.971],[101.4172,2.9773],[101.4257,2.9766],[101.4388,2.9669],[101.4395,2.9628],[101.438,2.9606],[101.4269,2.9554],[101.4231,2.9506],[101.4395,2.9498],[101.4525,2.9524],[101.5243,2.9498],[101.5488,2.9636],[101.5488,2.9584],[101.563,2.9639],[101.5607,2.9691],[101.5732,2.9776],[101.5653,2.9768],[101.557,2.9818],[101.5503,2.9944],[101.5541,2.9996],[101.5477,3.007],[101.5473,3.0162],[101.5499,3.0152],[101.5514,3.0165],[101.5556,3.0144],[101.558,3.0155],[101.5509,3.0201],[101.5523,3.021],[101.5564,3.0196],[101.5568,3.0217],[101.5547,3.0241],[101.5402,3.0348],[101.533,3.0384],[101.53,3.0391],[101.5181,3.0305],[101.5109,3.0396],[101.4966,3.0407],[101.4959,3.0424],[101.4978,3.0462],[101.4919,3.0445],[101.4909,3.0457],[101.4912,3.0631],[101.489,3.0643],[101.4802,3.0607],[101.4797,3.07],[101.479,3.0721],[101.4759,3.074],[101.4752,3.0852],[101.4676,3.0916],[101.4447,3.093],[101.4417,3.1114],[101.4462,3.1121],[101.4499,3.1188],[101.4525,3.1188],[101.4548,3.1273],[101.451,3.1333],[101.4514,3.1362],[101.4533,3.1374],[101.4603,3.1515],[101.4733,3.1608],[101.4265,3.1926],[101.4005,3.1931],[101.4005,3.1871],[101.3692,3.186],[101.3688,3.1764],[101.3433,3.176],[101.3433,3.1636],[101.3274,3.1629],[101.3262,3.161],[101.3157,3.1691],[101.3064,3.1655]]],[[[101.2565,2.9112],[101.2595,2.9216],[101.2591,2.9476],[101.2573,2.9591],[101.2539,2.9662],[101.2312,2.9506],[101.2301,2.945],[101.2312,2.9394],[101.2305,2.9283],[101.2342,2.9205],[101.2338,2.9041],[101.2565,2.9112]]],[[[101.3555,2.9936],[101.3376,2.9862],[101.3242,2.9769],[101.3034,2.9513],[101.2792,2.9056],[101.2814,2.9045],[101.28,2.8982],[101.2736,2.8948],[101.2855,2.8844],[101.2945,2.8896],[101.3123,2.909],[101.3171,2.9134],[101.3212,2.9149],[101.3276,2.9127],[101.3316,2.909],[101.3398,2.8967],[101.3432,2.896],[101.3484,2.8982],[101.3454,2.9064],[101.3406,2.9119],[101.3365,2.9197],[101.3376,2.9227],[101.3406,2.926],[101.348,2.9298],[101.3581,2.9442],[101.3696,2.9714],[101.3759,2.981],[101.3904,2.9892],[101.3897,2.9922],[101.3644,2.9922],[101.3555,2.9936]]],[[[101.2695,3.017],[101.2703,3.0211],[101.2606,3.0159],[101.2469,3.0163],[101.2227,3.0048],[101.2204,3.0007],[101.2171,2.9844],[101.1989,2.958],[101.1981,2.9506],[101.2019,2.9494],[101.2149,2.955],[101.2435,2.9884],[101.264,3.004],[101.2681,3.0104],[101.2695,3.017]]],[[[101.2182,3.0066],[101.2431,3.0174],[101.258,3.0207],[101.2751,3.0334],[101.2792,3.0408],[101.2751,3.0479],[101.2707,3.0512],[101.2692,3.0575],[101.2647,3.0601],[101.2562,3.0597],[101.2461,3.0557],[101.2342,3.0467],[101.2305,3.0375],[101.2219,3.0319],[101.2089,3.0107],[101.2104,3.007],[101.2134,3.0048],[101.2182,3.0066]]],[[[101.2773,2.9227],[101.3008,2.9639],[101.3038,2.9702],[101.306,2.9821],[101.3116,2.9825],[101.3142,2.9884],[101.3343,2.9966],[101.3372,2.9996],[101.3376,3.0111],[101.3346,3.0415],[101.3376,3.0505],[101.338,3.0597],[101.332,3.0661],[101.3276,3.0679],[101.3175,3.0694],[101.3101,3.0664],[101.306,3.0631],[101.2818,3.0074],[101.2647,2.9784],[101.2617,2.9576],[101.2647,2.9186],[101.2721,2.9182],[101.2773,2.9227]]]]},"properties":{"name":"Klang","name_source":"Klang","state":"Selangor","level":"daerah","area_km2":625.01,"area_ha":62501}},{"type":"Feature","geometry":{"type":"Polygon","coordinates":[[[101.5785,2.9789],[101.5732,2.9776],[101.5607,2.9691],[101.563,2.9639],[101.5488,2.9584],[101.5488,2.9636],[101.5243,2.9498],[101.4525,2.9524],[101.4395,2.9498],[101.4231,2.9506],[101.4269,2.9554],[101.438,2.9606],[101.4395,2.9628],[101.4388,2.9669],[101.4257,2.9766],[101.4172,2.9773],[101.4086,2.971],[101.4045,2.9569],[101.4001,2.9509],[101.396,2.9483],[101.3923,2.9439],[101.3914,2.939],[101.3902,2.9347],[101.3869,2.9148],[101.3814,2.9064],[101.3752,2.9038],[101.3693,2.9036],[101.36,2.9102],[101.3486,2.9217],[101.3424,2.9233],[101.3414,2.9219],[101.3424,2.919],[101.3514,2.9053],[101.3517,2.8967],[101.3476,2.8922],[101.3412,2.8919],[101.3381,2.8938],[101.3248,2.9083],[101.3205,2.911],[101.3143,2.9005],[101.3036,2.8877],[101.2855,2.8767],[101.2841,2.8744],[101.2853,2.8608],[101.2907,2.8401],[101.2924,2.8377],[101.3014,2.8335],[101.3067,2.832],[101.3207,2.8318],[101.3305,2.8282],[101.3581,2.8135],[101.3721,2.8092],[101.4012,2.8052],[101.4081,2.7999],[101.4059,2.7985],[101.4055,2.7959],[101.4057,2.7926],[101.4081,2.7888],[101.4133,2.7838],[101.4236,2.7776],[101.4324,2.7629],[101.4428,2.7507],[101.4476,2.7412],[101.45,2.7391],[101.4619,2.7096],[101.4829,2.6878],[101.5038,2.6779],[101.5224,2.6745],[101.5352,2.6646],[101.5823,2.6501],[101.5896,2.6423],[101.5946,2.6445],[101.5976,2.646],[101.5961,2.7284],[101.6314,2.7273],[101.6322,2.7552],[101.6824,2.8139],[101.6723,2.8232],[101.6656,2.8232],[101.6589,2.828],[101.6452,2.8443],[101.5928,2.9459],[101.5785,2.9789]]]},"properties":{"name":"Kuala Langat","name_source":"Kuala Langat","state":"Selangor","level":"daerah","area_km2":856.59,"area_ha":85659}},{"type":"Feature","geometry":{"type":"Polygon","coordinates":[[[101.4265,3.1926],[101.4733,3.1608],[101.4603,3.1515],[101.4533,3.1374],[101.4514,3.1362],[101.451,3.1333],[101.4548,3.1273],[101.4525,3.1188],[101.4499,3.1188],[101.4462,3.1121],[101.4417,3.1114],[101.4447,3.093],[101.4676,3.0916],[101.4752,3.0852],[101.4759,3.074],[101.479,3.0721],[101.4797,3.07],[101.4802,3.0607],[101.489,3.0643],[101.4912,3.0631],[101.4909,3.0457],[101.4919,3.0445],[101.4978,3.0462],[101.4959,3.0424],[101.4966,3.0407],[101.5109,3.0396],[101.5181,3.0305],[101.53,3.0391],[101.533,3.0384],[101.5402,3.0348],[101.5547,3.0241],[101.5568,3.0217],[101.5564,3.0196],[101.5523,3.021],[101.5509,3.0201],[101.558,3.0155],[101.5556,3.0144],[101.5514,3.0165],[101.5499,3.0152],[101.5473,3.0162],[101.5477,3.007],[101.5541,2.9996],[101.5503,2.9944],[101.557,2.9818],[101.5653,2.9768],[101.5732,2.9776],[101.5785,2.9789],[101.6087,2.9806],[101.6418,2.9801],[101.6544,2.9816],[101.6637,2.9778],[101.7282,2.9899],[101.7261,2.9972],[101.7266,3.0022],[101.722,3.0127],[101.7282,3.0243],[101.7306,3.035],[101.7306,3.0367],[101.7256,3.0369],[101.7144,3.0541],[101.7104,3.0531],[101.7089,3.0469],[101.7073,3.046],[101.7032,3.05],[101.6989,3.0481],[101.6989,3.0464],[101.697,3.0455],[101.6906,3.0436],[101.6875,3.0441],[101.6863,3.0457],[101.6797,3.0419],[101.6761,3.0419],[101.6749,3.0448],[101.654,3.0462],[101.6544,3.0503],[101.658,3.0491],[101.659,3.0576],[101.6513,3.0595],[101.6502,3.0638],[101.6521,3.0655],[101.6518,3.0678],[101.648,3.0724],[101.6566,3.079],[101.6628,3.088],[101.6575,3.1128],[101.6528,3.1101],[101.6494,3.1185],[101.644,3.1211],[101.6478,3.1244],[101.6485,3.1275],[101.6442,3.1282],[101.6352,3.1327],[101.6292,3.1306],[101.6294,3.1353],[101.6271,3.1399],[101.6223,3.1429],[101.6149,3.1536],[101.619,3.1738],[101.6192,3.1981],[101.6235,3.1983],[101.6266,3.2009],[101.629,3.205],[101.6297,3.21],[101.6187,3.2088],[101.6071,3.1995],[101.599,3.2016],[101.5923,3.2012],[101.5771,3.2081],[101.5635,3.2226],[101.5592,3.2299],[101.5499,3.224],[101.5478,3.219],[101.5335,3.2185],[101.5321,3.2169],[101.5288,3.2164],[101.528,3.2216],[101.5245,3.2207],[101.5226,3.2176],[101.5202,3.2173],[101.509,3.2228],[101.505,3.2207],[101.5007,3.2214],[101.4964,3.2254],[101.4921,3.2278],[101.4916,3.1849],[101.4871,3.1919],[101.4771,3.1927],[101.4741,3.1971],[101.4629,3.1919],[101.4265,3.1926]]]},"properties":{"name":"Petaling","name_source":"Petaling","state":"Selangor","level":"daerah","area_km2":507.87,"area_ha":50787}},{"type":"Feature","geometry":{"type":"Polygon","coordinates":[[[101.7306,3.0367],[101.7306,3.0548],[101.7494,3.0548],[101.7499,3.0726],[101.747,3.0785],[101.7432,3.0826],[101.7523,3.0942],[101.7513,3.1004],[101.7539,3.1049],[101.7518,3.1082],[101.7546,3.112],[101.7544,3.1147],[101.7523,3.1168],[101.747,3.1163],[101.7439,3.1092],[101.7387,3.1135],[101.7385,3.1182],[101.7411,3.1237],[101.7368,3.133],[101.7358,3.1394],[101.7392,3.142],[101.7411,3.1506],[101.7451,3.1498],[101.7494,3.1536],[101.7496,3.1582],[101.7494,3.1583],[101.7473,3.1598],[101.7363,3.1627],[101.7351,3.1698],[101.7325,3.1724],[101.7325,3.1765],[101.7392,3.1776],[101.7499,3.1757],[101.7577,3.1862],[101.7546,3.1988],[101.7508,3.2028],[101.7475,3.2028],[101.7456,3.2104],[101.7401,3.2166],[101.7406,3.224],[101.7432,3.2287],[101.7385,3.2347],[101.7382,3.2316],[101.7323,3.2314],[101.7299,3.2333],[101.7197,3.2233],[101.7178,3.2259],[101.7137,3.2199],[101.7161,3.215],[101.7151,3.2135],[101.7128,3.2135],[101.702,3.2166],[101.702,3.2183],[101.6994,3.2192],[101.6999,3.2237],[101.6963,3.2233],[101.6947,3.2283],[101.6725,3.2278],[101.6711,3.2356],[101.6642,3.2444],[101.6525,3.2349],[101.6466,3.2337],[101.6375,3.229],[101.6387,3.2233],[101.6375,3.2173],[101.6335,3.2166],[101.6335,3.2142],[101.6297,3.21],[101.629,3.205],[101.6266,3.2009],[101.6235,3.1983],[101.6192,3.1981],[101.619,3.1738],[101.6149,3.1536],[101.6223,3.1429],[101.6271,3.1399],[101.6294,3.1353],[101.6292,3.1306],[101.6352,3.1327],[101.6442,3.1282],[101.6485,3.1275],[101.6478,3.1244],[101.644,3.1211],[101.6494,3.1185],[101.6528,3.1101],[101.6575,3.1128],[101.6628,3.088],[101.6566,3.079],[101.648,3.0724],[101.6518,3.0678],[101.6521,3.0655],[101.6502,3.0638],[101.6513,3.0595],[101.659,3.0576],[101.658,3.0491],[101.6544,3.0503],[101.654,3.0462],[101.6749,3.0448],[101.6761,3.0419],[101.6797,3.0419],[101.6863,3.0457],[101.6875,3.0441],[101.6906,3.0436],[101.697,3.0455],[101.6989,3.0464],[101.6989,3.0481],[101.7032,3.05],[101.7073,3.046],[101.7089,3.0469],[101.7104,3.0531],[101.7144,3.0541],[101.7256,3.0369],[101.7306,3.0367]]]},"properties":{"name":"Kuala Lumpur","name_source":"Kuala Lumpur","state":"Kuala Lumpur","level":"wilayah","area_km2":242.68,"area_ha":24268}},{"type":"Feature","geometry":{"type":"Polygon","coordinates":[[[101.4921,3.2278],[101.4964,3.2254],[101.5007,3.2214],[101.505,3.2207],[101.509,3.2228],[101.5202,3.2173],[101.5226,3.2176],[101.5245,3.2207],[101.528,3.2216],[101.5288,3.2164],[101.5321,3.2169],[101.5335,3.2185],[101.5478,3.219],[101.5499,3.224],[101.5592,3.2299],[101.5635,3.2226],[101.5771,3.2081],[101.5923,3.2012],[101.599,3.2016],[101.6071,3.1995],[101.6187,3.2088],[101.6297,3.21],[101.6335,3.2142],[101.6335,3.2166],[101.6375,3.2173],[101.6387,3.2233],[101.6375,3.229],[101.6466,3.2337],[101.6525,3.2349],[101.6642,3.2444],[101.6711,3.2356],[101.6725,3.2278],[101.6947,3.2283],[101.6963,3.2233],[101.6999,3.2237],[101.6994,3.2192],[101.702,3.2183],[101.702,3.2166],[101.7128,3.2135],[101.7151,3.2135],[101.7161,3.215],[101.7137,3.2199],[101.7178,3.2259],[101.7197,3.2233],[101.7299,3.2333],[101.7323,3.2314],[101.7382,3.2316],[101.7385,3.2347],[101.7432,3.2287],[101.7406,3.224],[101.7401,3.2166],[101.7456,3.2104],[101.7475,3.2028],[101.7508,3.2028],[101.7546,3.1988],[101.7577,3.1862],[101.7499,3.1757],[101.7392,3.1776],[101.7325,3.1765],[101.7325,3.1724],[101.7351,3.1698],[101.7363,3.1627],[101.7473,3.1598],[101.7494,3.1583],[101.7527,3.1612],[101.7594,3.1596],[101.7646,3.1605],[101.7673,3.1584],[101.7701,3.1517],[101.7739,3.1515],[101.7794,3.1485],[101.7854,3.16],[101.8021,3.15],[101.8084,3.1522],[101.8114,3.1548],[101.8036,3.1842],[101.804,3.1879],[101.8133,3.2079],[101.8122,3.2172],[101.8148,3.2202],[101.8174,3.2302],[101.8223,3.2352],[101.83,3.2492],[101.8299,3.2526],[101.8314,3.2538],[101.8308,3.2573],[101.841,3.2652],[101.8443,3.272],[101.8501,3.2725],[101.8515,3.2733],[101.8527,3.2748],[101.8544,3.2774],[101.8525,3.2803],[101.8484,3.2855],[101.8409,3.2855],[101.8246,3.296],[101.8107,3.3099],[101.8089,3.3163],[101.7979,3.3349],[101.7822,3.3436],[101.7816,3.3488],[101.7834,3.3552],[101.7775,3.3604],[101.7688,3.3656],[101.7574,3.374],[101.7527,3.3717],[101.73,3.3795],[101.7236,3.3858],[101.7183,3.3882],[101.6962,3.3488],[101.6817,3.3343],[101.6793,3.3401],[101.6689,3.3314],[101.659,3.3325],[101.6526,3.3354],[101.6468,3.332],[101.6392,3.3244],[101.6131,3.325],[101.5922,3.3296],[101.5893,3.3378],[101.584,3.3436],[101.5805,3.3395],[101.5753,3.3401],[101.5631,3.343],[101.5544,3.3488],[101.5445,3.3511],[101.537,3.3505],[101.5294,3.3459],[101.5201,3.347],[101.5085,3.3534],[101.4992,3.3534],[101.494,3.3673],[101.4876,3.3679],[101.4783,3.3731],[101.4806,3.3801],[101.4754,3.3865],[101.4707,3.39],[101.4596,3.401],[101.4596,3.4002],[101.4562,3.4017],[101.4488,3.4006],[101.444,3.398],[101.4443,3.3557],[101.4469,3.3557],[101.4455,3.3379],[101.4317,3.3045],[101.4376,3.2981],[101.4622,3.3004],[101.4626,3.2777],[101.4745,3.2751],[101.4927,3.2751],[101.4921,3.2278]]]},"properties":{"name":"Gombak","name_source":"Gombak","state":"Selangor","level":"daerah","area_km2":636.08,"area_ha":63608}},{"type":"Feature","geometry":{"type":"Polygon","coordinates":[[[101.8544,3.2774],[101.8527,3.2748],[101.8515,3.2733],[101.8501,3.2725],[101.8443,3.272],[101.841,3.2652],[101.8308,3.2573],[101.8314,3.2538],[101.8299,3.2526],[101.83,3.2492],[101.8223,3.2352],[101.8174,3.2302],[101.8148,3.2202],[101.8122,3.2172],[101.8133,3.2079],[101.804,3.1879],[101.8036,3.1842],[101.8114,3.1548],[101.8084,3.1522],[101.8021,3.15],[101.7854,3.16],[101.7794,3.1485],[101.7739,3.1515],[101.7701,3.1517],[101.7673,3.1584],[101.7646,3.1605],[101.7594,3.1596],[101.7527,3.1612],[101.7494,3.1583],[101.7496,3.1582],[101.7494,3.1536],[101.7451,3.1498],[101.7411,3.1506],[101.7392,3.142],[101.7358,3.1394],[101.7368,3.133],[101.7411,3.1237],[101.7385,3.1182],[101.7387,3.1135],[101.7439,3.1092],[101.747,3.1163],[101.7523,3.1168],[101.7544,3.1147],[101.7546,3.112],[101.7518,3.1082],[101.7539,3.1049],[101.7513,3.1004],[101.7523,3.0942],[101.7432,3.0826],[101.747,3.0785],[101.7499,3.0726],[101.7494,3.0548],[101.7306,3.0548],[101.7306,3.0367],[101.7306,3.035],[101.7282,3.0243],[101.722,3.0127],[101.7266,3.0022],[101.7344,2.9968],[101.7423,2.982],[101.7325,2.9775],[101.7337,2.969],[101.733,2.9625],[101.7463,2.9599],[101.7513,2.9533],[101.7525,2.9419],[101.7565,2.93],[101.7558,2.9181],[101.759,2.9113],[101.7653,2.9049],[101.7694,2.8973],[101.7723,2.884],[101.788,2.8765],[101.7912,2.8702],[101.8816,2.8677],[101.924,2.9676],[101.9245,2.9732],[101.9289,2.9795],[101.9301,2.9836],[101.9312,2.9959],[101.9408,3.0022],[101.9423,3.0059],[101.9397,3.0167],[101.9434,3.0178],[101.9475,3.0163],[101.9546,3.0256],[101.968,3.0278],[101.9687,3.036],[101.9672,3.043],[101.965,3.0453],[101.9646,3.0519],[101.9661,3.0564],[101.9598,3.062],[101.9591,3.0653],[101.9617,3.0694],[101.962,3.0742],[101.9605,3.0794],[101.9576,3.0824],[101.9565,3.0928],[101.9505,3.1058],[101.9501,3.1103],[101.9516,3.1129],[101.9583,3.1155],[101.9609,3.1195],[101.9635,3.1255],[101.9624,3.131],[101.9639,3.1359],[101.9672,3.14],[101.9565,3.1459],[101.9565,3.1567],[101.9479,3.166],[101.9423,3.1842],[101.9486,3.1971],[101.9468,3.2027],[101.9494,3.2087],[101.9457,3.2246],[101.9397,3.235],[101.9349,3.2387],[101.9319,3.2439],[101.9334,3.2506],[101.9278,3.2566],[101.9274,3.2603],[101.9147,3.2606],[101.8996,3.2676],[101.8932,3.2618],[101.8845,3.2612],[101.8792,3.2681],[101.8566,3.2739],[101.8544,3.2774]]]},"properties":{"name":"Hulu Langat","name_source":"Ulu Langat","state":"Selangor","level":"daerah","area_km2":844.72,"area_ha":84472}},{"type":"Feature","geometry":{"type":"Polygon","coordinates":[[[101.661,2.894],[101.6637,2.8891],[101.6627,2.8854],[101.6658,2.8793],[101.6713,2.8834],[101.6744,2.8762],[101.6752,2.8811],[101.6784,2.8791],[101.6806,2.8801],[101.6805,2.8816],[101.6848,2.8817],[101.6852,2.8847],[101.6868,2.8846],[101.6882,2.8917],[101.6897,2.893],[101.6974,2.894],[101.6974,2.8985],[101.701,2.8997],[101.7017,2.9013],[101.7015,2.9054],[101.6975,2.9064],[101.6974,2.9095],[101.7003,2.9094],[101.7005,2.9131],[101.7072,2.913],[101.7075,2.9293],[101.7328,2.9292],[101.7326,2.9532],[101.7311,2.9552],[101.7154,2.9553],[101.7154,2.9641],[101.7113,2.9616],[101.7088,2.962],[101.7088,2.9636],[101.7034,2.9635],[101.7034,2.9671],[101.6998,2.9685],[101.7,2.9719],[101.7031,2.9754],[101.7076,2.9793],[101.7079,2.9833],[101.7076,2.9833],[101.7047,2.9789],[101.6869,2.9713],[101.6763,2.972],[101.6679,2.9692],[101.6629,2.9645],[101.665,2.9574],[101.6693,2.9553],[101.6748,2.9497],[101.6738,2.9463],[101.6647,2.9441],[101.6684,2.9396],[101.6674,2.9309],[101.6682,2.928],[101.6724,2.9229],[101.6723,2.9195],[101.6718,2.9156],[101.6691,2.9151],[101.6694,2.9103],[101.6638,2.9088],[101.663,2.9043],[101.6601,2.9015],[101.661,2.894]]]},"properties":{"name":"Putrajaya","name_source":"Bandar Putrajaya","state":"Putrajaya","level":"wilayah","area_km2":49.47,"area_ha":4947}}]}